STARLINK-4308           
1 53061U 22077U   25232.78961275  .00000156  00000+0  16744-4 0  9999
2 53061  97.6497  53.4735 0001564  39.2887 320.8451 15.01253083170772
STARLINK-4311           
1 53062U 22077V   25234.45961014  .00000478  00000+0  41779-4 0  9990
2 53062  97.6462  55.1168 0001595  71.4892 288.6505 15.01263888171026
STARLINK-4307           
1 53063U 22077W   25232.74700959 -.00000452  00000+0 -30618-4 0  9994
2 53063  97.6499  53.4393 0000840  90.2178 269.9142 15.01259406 42359
STARLINK-4313           
1 53064U 22077X   25234.45778455  .00000848  00000+0  70609-4 0  9992
2 53064  97.6452  55.1162 0001254  80.3201 279.8165 15.01268860171025
STARLINK-4312           
1 53065U 22077Y   25232.78588938 -.00000608  00000+0 -42775-4 0  9991
2 53065  97.6470  53.4723 0002441  61.1464 299.0005 15.01257666170777
STARLINK-4309           
1 53066U 22077Z   25232.91761409  .00064667  00000+0  49990-2 0  9990
2 53066  97.6489  53.6109 0001704 151.2073 208.9246 15.01216163170791
STARLINK-4325           
1 53068U 22077AB  25232.78774563  .00000517  00000+0  44826-4 0  9991
2 53068  97.6482  53.4650 0001940  55.6744 304.4663 15.01261548170779
STARLINK-4323           
1 53069U 22077AC  25232.77848838 -.00000465  00000+0 -31584-4 0  9999
2 53069  97.6471  53.4674 0003069  67.1295 293.0253 15.01264847170770
STARLINK-4342           
1 53070U 22077AD  25234.51700301  .00000568  00000+0  48764-4 0  9997
2 53070  97.6459  55.1777 0001189  96.7606 263.3754 15.01259939171038
STARLINK-4328           
1 53071U 22077AE  25232.77663773 -.00000004  00000+0  42539-5 0  9996
2 53071  97.6470  53.4659 0003174  59.6066 300.5472 15.01262211170774
STARLINK-4344           
1 53072U 22077AF  25232.77293302 -.00001682  00000+0 -12635-3 0  9990
2 53072  97.6465  53.4786 0003547  54.3929 305.7625 15.01269007170771
STARLINK-4346           
1 53073U 22077AG  25232.76880200  .00016494  00000+0  10287-2 0  9994
2 53073  97.6471  54.6531 0005323 215.2893 144.7984 15.09591387170868
STARLINK-4310           
1 53074U 22077AH  25232.78034079 -.00000762  00000+0 -54699-4 0  9992
2 53074  97.6476  53.4596 0002912  80.9131 279.2423 15.01265615170771
STARLINK-4348           
1 53075U 22077AJ  25232.50818336 -.00000419  00000+0 -28010-4 0  9996
2 53075  97.6468  53.1893 0003062  53.6204 306.5302 15.01263734170731
STARLINK-4347           
1 53076U 22077AK  25232.77318093 -.00000439  00000+0 -29616-4 0  9996
2 53076  97.6465  53.4658 0003221  52.5550 307.5967 15.01261268170772
STARLINK-4322           
1 53078U 22077AM  25232.77108296 -.00000547  00000+0 -37975-4 0  9997
2 53078  97.6468  53.4598 0003423  56.5217 303.6334 15.01265447170776
STARLINK-4327           
1 53079U 22077AN  25232.76550651 -.00017470  00000+0 -13560-2 0  9998
2 53079  97.6470  53.4524 0002339  59.9669 300.1787 15.01339526170776
