[{"OBJECT_NAME":"STARLINK-4308","OBJECT_ID":"2022-077U","EPOCH":"2025-08-20T18:57:02.541600","MEAN_MOTION":15.01253083,"ECCENTRICITY":0.0001564,"INCLINATION":97.6497,"RA_OF_ASC_NODE":53.4735,"ARG_OF_PERICENTER":39.2887,"MEAN_ANOMALY":320.8451,"EPHEMERIS_TYPE":0,"CLASSIFICATION_TYPE":"U","NORAD_CAT_ID":53061,"ELEMENT_SET_NO":999,"REV_AT_EPOCH":17077,"BSTAR":1.6744e-5,"MEAN_MOTION_DOT":1.56e-6,"MEAN_MOTION_DDOT":0},{"OBJECT_NAME":"STARLINK-4311","OBJECT_ID":"2022-077V","EPOCH":"2025-08-22T11:01:50.316096","MEAN_MOTION":15.01263888,"ECCENTRICITY":0.00015958,"INCLINATION":97.6462,"RA_OF_ASC_NODE":55.1168,"ARG_OF_PERICENTER":71.4892,"MEAN_ANOMALY":288.6505,"EPHEMERIS_TYPE":0,"CLASSIFICATION_TYPE":"U","NORAD_CAT_ID":53062,"ELEMENT_SET_NO":999,"REV_AT_EPOCH":17102,"BSTAR":4.1779298e-5,"MEAN_MOTION_DOT":4.78e-6,"MEAN_MOTION_DDOT":0},{"OBJECT_NAME":"STARLINK-4307","OBJECT_ID":"2022-077W","EPOCH":"2025-08-20T17:55:41.628576","MEAN_MOTION":15.01259406,"ECCENTRICITY":8.4e-5,"INCLINATION":97.6499,"RA_OF_ASC_NODE":53.4393,"ARG_OF_PERICENTER":90.2178,"MEAN_ANOMALY":269.9142,"EPHEMERIS_TYPE":0,"CLASSIFICATION_TYPE":"U","NORAD_CAT_ID":53063,"ELEMENT_SET_NO":999,"REV_AT_EPOCH":4235,"BSTAR":-3.0618e-5,"MEAN_MOTION_DOT":-4.52e-6,"MEAN_MOTION_DDOT":0},{"OBJECT_NAME":"STARLINK-4313","OBJECT_ID":"2022-077X","EPOCH":"2025-08-22T10:59:12.585120","MEAN_MOTION":15.0126886,"ECCENTRICITY":0.00012548,"INCLINATION":97.6452,"RA_OF_ASC_NODE":55.1162,"ARG_OF_PERICENTER":80.3201,"MEAN_ANOMALY":279.8165,"EPHEMERIS_TYPE":0,"CLASSIFICATION_TYPE":"U","NORAD_CAT_ID":53064,"ELEMENT_SET_NO":999,"REV_AT_EPOCH":17102,"BSTAR":7.0608695e-5,"MEAN_MOTION_DOT":8.48e-6,"MEAN_MOTION_DDOT":0},{"OBJECT_NAME":"STARLINK-4312","OBJECT_ID":"2022-077Y","EPOCH":"2025-08-20T18:51:40.842432","MEAN_MOTION":15.01257666,"ECCENTRICITY":0.0002441,"INCLINATION":97.647,"RA_OF_ASC_NODE":53.4723,"ARG_OF_PERICENTER":61.1464,"MEAN_ANOMALY":299.0005,"EPHEMERIS_TYPE":0,"CLASSIFICATION_TYPE":"U","NORAD_CAT_ID":53065,"ELEMENT_SET_NO":999,"REV_AT_EPOCH":17077,"BSTAR":-4.2775e-5,"MEAN_MOTION_DOT":-6.08e-6,"MEAN_MOTION_DDOT":0},{"OBJECT_NAME":"STARLINK-4309","OBJECT_ID":"2022-077Z","EPOCH":"2025-08-20T22:01:21.857376","MEAN_MOTION":15.01216163,"ECCENTRICITY":0.0001704,"INCLINATION":97.6489,"RA_OF_ASC_NODE":53.6109,"ARG_OF_PERICENTER":151.2073,"MEAN_ANOMALY":208.9246,"EPHEMERIS_TYPE":0,"CLASSIFICATION_TYPE":"U","NORAD_CAT_ID":53066,"ELEMENT_SET_NO":999,"REV_AT_EPOCH":17079,"BSTAR":0.004999,"MEAN_MOTION_DOT":0.00064667,"MEAN_MOTION_DDOT":0},{"OBJECT_NAME":"STARLINK-4325","OBJECT_ID":"2022-077AB","EPOCH":"2025-08-20T18:54:21.222432","MEAN_MOTION":15.01261548,"ECCENTRICITY":0.000194,"INCLINATION":97.6482,"RA_OF_ASC_NODE":53.465,"ARG_OF_PERICENTER":55.6744,"MEAN_ANOMALY":304.4663,"EPHEMERIS_TYPE":0,"CLASSIFICATION_TYPE":"U","NORAD_CAT_ID":53068,"ELEMENT_SET_NO":999,"REV_AT_EPOCH":17077,"BSTAR":4.4826e-5,"MEAN_MOTION_DOT":5.17e-6,"MEAN_MOTION_DDOT":0},{"OBJECT_NAME":"STARLINK-4323","OBJECT_ID":"2022-077AC","EPOCH":"2025-08-20T18:41:01.396032","MEAN_MOTION":15.01264847,"ECCENTRICITY":0.0003069,"INCLINATION":97.6471,"RA_OF_ASC_NODE":53.4674,"ARG_OF_PERICENTER":67.1295,"MEAN_ANOMALY":293.0253,"EPHEMERIS_TYPE":0,"CLASSIFICATION_TYPE":"U","NORAD_CAT_ID":53069,"ELEMENT_SET_NO":999,"REV_AT_EPOCH":17077,"BSTAR":-3.1584e-5,"MEAN_MOTION_DOT":-4.65e-6,"MEAN_MOTION_DDOT":0},{"OBJECT_NAME":"STARLINK-4342","OBJECT_ID":"2022-077AD","EPOCH":"2025-08-22T12:24:29.060064","MEAN_MOTION":15.01259939,"ECCENTRICITY":0.00011892,"INCLINATION":97.6459,"RA_OF_ASC_NODE":55.1777,"ARG_OF_PERICENTER":96.7606,"MEAN_ANOMALY":263.3754,"EPHEMERIS_TYPE":0,"CLASSIFICATION_TYPE":"U","NORAD_CAT_ID":53070,"ELEMENT_SET_NO":999,"REV_AT_EPOCH":17103,"BSTAR":4.876363e-5,"MEAN_MOTION_DOT":5.68e-6,"MEAN_MOTION_DDOT":0},{"OBJECT_NAME":"STARLINK-4328","OBJECT_ID":"2022-077AE","EPOCH":"2025-08-20T18:38:21.499872","MEAN_MOTION":15.01262211,"ECCENTRICITY":0.0003174,"INCLINATION":97.647,"RA_OF_ASC_NODE":53.4659,"ARG_OF_PERICENTER":59.6066,"MEAN_ANOMALY":300.5472,"EPHEMERIS_TYPE":0,"CLASSIFICATION_TYPE":"U","NORAD_CAT_ID":53071,"ELEMENT_SET_NO":999,"REV_AT_EPOCH":17077,"BSTAR":4.2539e-6,"MEAN_MOTION_DOT":-4.0e-8,"MEAN_MOTION_DDOT":0},{"OBJECT_NAME":"STARLINK-4344","OBJECT_ID":"2022-077AF","EPOCH":"2025-08-20T18:33:01.412928","MEAN_MOTION":15.01269007,"ECCENTRICITY":0.0003547,"INCLINATION":97.6465,"RA_OF_ASC_NODE":53.4786,"ARG_OF_PERICENTER":54.3929,"MEAN_ANOMALY":305.7625,"EPHEMERIS_TYPE":0,"CLASSIFICATION_TYPE":"U","NORAD_CAT_ID":53072,"ELEMENT_SET_NO":999,"REV_AT_EPOCH":17077,"BSTAR":-0.00012635,"MEAN_MOTION_DOT":-1.682e-5,"MEAN_MOTION_DDOT":0},{"OBJECT_NAME":"STARLINK-4346","OBJECT_ID":"2022-077AG","EPOCH":"2025-08-20T18:27:04.492800","MEAN_MOTION":15.09591387,"ECCENTRICITY":0.0005323,"INCLINATION":97.6471,"RA_OF_ASC_NODE":54.6531,"ARG_OF_PERICENTER":215.2893,"MEAN_ANOMALY":144.7984,"EPHEMERIS_TYPE":0,"CLASSIFICATION_TYPE":"U","NORAD_CAT_ID":53073,"ELEMENT_SET_NO":999,"REV_AT_EPOCH":17086,"BSTAR":0.0010287,"MEAN_MOTION_DOT":0.00016494,"MEAN_MOTION_DDOT":0},{"OBJECT_NAME":"STARLINK-4310","OBJECT_ID":"2022-077AH","EPOCH":"2025-08-20T18:43:41.444256","MEAN_MOTION":15.01265615,"ECCENTRICITY":0.0002912,"INCLINATION":97.6476,"RA_OF_ASC_NODE":53.4596,"ARG_OF_PERICENTER":80.9131,"MEAN_ANOMALY":279.2423,"EPHEMERIS_TYPE":0,"CLASSIFICATION_TYPE":"U","NORAD_CAT_ID":53074,"ELEMENT_SET_NO":999,"REV_AT_EPOCH":17077,"BSTAR":-5.4699e-5,"MEAN_MOTION_DOT":-7.62e-6,"MEAN_MOTION_DDOT":0},{"OBJECT_NAME":"STARLINK-4348","OBJECT_ID":"2022-077AJ","EPOCH":"2025-08-20T12:11:47.042304","MEAN_MOTION":15.01263734,"ECCENTRICITY":0.0003062,"INCLINATION":97.6468,"RA_OF_ASC_NODE":53.1893,"ARG_OF_PERICENTER":53.6204,"MEAN_ANOMALY":306.5302,"EPHEMERIS_TYPE":0,"CLASSIFICATION_TYPE":"U","NORAD_CAT_ID":53075,"ELEMENT_SET_NO":999,"REV_AT_EPOCH":17073,"BSTAR":-2.801e-5,"MEAN_MOTION_DOT":-4.19e-6,"MEAN_MOTION_DDOT":0},{"OBJECT_NAME":"STARLINK-4347","OBJECT_ID":"2022-077AK","EPOCH":"2025-08-20T18:33:22.832352","MEAN_MOTION":15.01261268,"ECCENTRICITY":0.0003221,"INCLINATION":97.6465,"RA_OF_ASC_NODE":53.4658,"ARG_OF_PERICENTER":52.555,"MEAN_ANOMALY":307.5967,"EPHEMERIS_TYPE":0,"CLASSIFICATION_TYPE":"U","NORAD_CAT_ID":53076,"ELEMENT_SET_NO":999,"REV_AT_EPOCH":17077,"BSTAR":-2.9616e-5,"MEAN_MOTION_DOT":-4.39e-6,"MEAN_MOTION_DDOT":0},{"OBJECT_NAME":"STARLINK-4322","OBJECT_ID":"2022-077AM","EPOCH":"2025-08-20T18:30:21.567744","MEAN_MOTION":15.01265447,"ECCENTRICITY":0.0003423,"INCLINATION":97.6468,"RA_OF_ASC_NODE":53.4598,"ARG_OF_PERICENTER":56.5217,"MEAN_ANOMALY":303.6334,"EPHEMERIS_TYPE":0,"CLASSIFICATION_TYPE":"U","NORAD_CAT_ID":53078,"ELEMENT_SET_NO":999,"REV_AT_EPOCH":17077,"BSTAR":-3.7975e-5,"MEAN_MOTION_DOT":-5.47e-6,"MEAN_MOTION_DDOT":0},{"OBJECT_NAME":"STARLINK-4327","OBJECT_ID":"2022-077AN","EPOCH":"2025-08-20T18:22:19.762464","MEAN_MOTION":15.01339526,"ECCENTRICITY":0.0002339,"INCLINATION":97.647,"RA_OF_ASC_NODE":53.4524,"ARG_OF_PERICENTER":59.9669,"MEAN_ANOMALY":300.1787,"EPHEMERIS_TYPE":0,"CLASSIFICATION_TYPE":"U","NORAD_CAT_ID":53079,"ELEMENT_SET_NO":999,"REV_AT_EPOCH":17077,"BSTAR":-0.001356,"MEAN_MOTION_DOT":-0.0001747,"MEAN_MOTION_DDOT":0}]
